{"type": "FeatureCollection", "features": [ {"type": "Feature", "properties": {"norad_id": 34141, "name": "COSMOS 2251 DEB", "group": "cosmos-2251-debris", "lat": -72.86868471569684, "lon": -60.20865339460792, "alt_km": 767.6212920120252, "timestamp": "2025-12-23T16:57:12.748638+00:00", "meta": {"OBJECT_NAME": "COSMOS 2251 DEB", "OBJECT_ID": "1993-036LN", "EPOCH": "2025-12-23T02:41:34.938816", "MEAN_MOTION": 14.49338789, "ECCENTRICITY": 0.00464956, "INCLINATION": 74.011, "RA_OF_ASC_NODE": 9.3741, "ARG_OF_PERICENTER": 91.849, "MEAN_ANOMALY": 325.4318, "EPHEMERIS_TYPE": 0, "CLASSIFICATION_TYPE": "U", "NORAD_CAT_ID": 34141, "ELEMENT_SET_NO": 999, "REV_AT_EPOCH": 87844, "BSTAR": 0.0014544404, "MEAN_MOTION_DOT": 5.609e-05, "MEAN_MOTION_DDOT": 0}, "tle": {"line1": "1 34141U 93036LN  25357.11220994  .00005609  00000+0  14544-2 0  9993", "line2": "2 34141  74.0110   9.3741 0046495  91.8490 325.4318 14.49338789878444"}}, "geometry": {"type": "Point", "coordinates": [-60.20865339460792, -72.86868471569684]}}, {"type": "Feature", "properties": {"norad_id": 34270, "name": "COSMOS 2251 DEB", "group": "cosmos-2251-debris", "lat": 37.166742608411, "lon": 92.93900396827364, "alt_km": 659.3619657912323, "timestamp": "2025-12-23T16:57:12.748648+00:00", "meta": {"OBJECT_NAME": "COSMOS 2251 DEB", "OBJECT_ID": "1993-036LQ", "EPOCH": "2025-12-23T04:50:48.158592", "MEAN_MOTION": 14.65244108, "ECCENTRICITY": 0.00479878, "INCLINATION": 74.0116, "RA_OF_ASC_NODE": 286.4652, "ARG_OF_PERICENTER": 76.0742, "MEAN_ANOMALY": 284.5757, "EPHEMERIS_TYPE": 0, "CLASSIFICATION_TYPE": "U", "NORAD_CAT_ID": 34270, "ELEMENT_SET_NO": 999, "REV_AT_EPOCH": 89249, "BSTAR": 0.00067446334, "MEAN_MOTION_DOT": 3.666e-05, "MEAN_MOTION_DDOT": 0}, "tle": {"line1": "1 34270U 93036LQ  25357.20194628  .00003666  00000+0  67446-3 0  9991", "line2": "2 34270  74.0116 286.4652 0047987  76.0742 284.5757 14.65244108892496"}}, "geometry": {"type": "Point", "coordinates": [92.93900396827364, 37.166742608411]}}, {"type": "Feature", "properties": {"norad_id": 34271, "name": "COSMOS 2251 DEB", "group": "cosmos-2251-debris", "lat": -47.466016608696165, "lon": 159.81470339791576, "alt_km": 661.8844179541411, "timestamp": "2025-12-23T16:57:12.748658+00:00", "meta": {"OBJECT_NAME": "COSMOS 2251 DEB", "OBJECT_ID": "1993-036LR", "EPOCH": "2025-12-22T21:54:40.256352", "MEAN_MOTION": 14.70970032, "ECCENTRICITY": 0.00182682, "INCLINATION": 74.0193, "RA_OF_ASC_NODE": 179.5582, "ARG_OF_PERICENTER": 232.8492, "MEAN_ANOMALY": 197.0846, "EPHEMERIS_TYPE": 0, "CLASSIFICATION_TYPE": "U", "NORAD_CAT_ID": 34271, "ELEMENT_SET_NO": 999, "REV_AT_EPOCH": 88384, "BSTAR": 0.0021382594, "MEAN_MOTION_DOT": 0.00013138, "MEAN_MOTION_DDOT": 0}, "tle": {"line1": "1 34271U 93036LR  25356.91296593  .00013138  00000+0  21383-2 0  9997", "line2": "2 34271  74.0193 179.5582 0018268 232.8492 197.0846 14.70970032883844"}}, "geometry": {"type": "Point", "coordinates": [159.81470339791576, -47.466016608696165]}}, {"type": "Feature", "properties": {"norad_id": 34273, "name": "COSMOS 2251 DEB", "group": "cosmos-2251-debris", "lat": -46.7680708709268, "lon": 48.73117094141852, "alt_km": 699.9465553236923, "timestamp": "2025-12-23T16:57:12.748668+00:00", "meta": {"OBJECT_NAME": "COSMOS 2251 DEB", "OBJECT_ID": "1993-036LT", "EPOCH": "2025-12-23T04:08:17.943360", "MEAN_MOTION": 14.61312586, "ECCENTRICITY": 0.00135096, "INCLINATION": 74.0359, "RA_OF_ASC_NODE": 67.4794, "ARG_OF_PERICENTER": 193.2229, "MEAN_ANOMALY": 189.5426, "EPHEMERIS_TYPE": 0, "CLASSIFICATION_TYPE": "U", "NORAD_CAT_ID": 34273, "ELEMENT_SET_NO": 999, "REV_AT_EPOCH": 88774, "BSTAR": 0.00092743619, "MEAN_MOTION_DOT": 4.559e-05, "MEAN_MOTION_DDOT": 0}, "tle": {"line1": "1 34273U 93036LT  25357.17242990  .00004559  00000+0  92744-3 0  9997", "line2": "2 34273  74.0359  67.4794 0013509 193.2229 189.5426 14.61312586887748"}}, "geometry": {"type": "Point", "coordinates": [48.73117094141852, -46.7680708709268]}}, {"type": "Feature", "properties": {"norad_id": 34274, "name": "COSMOS 2251 DEB", "group": "cosmos-2251-debris", "lat": 5.971808003293928, "lon": -134.28225308705288, "alt_km": 665.307122200762, "timestamp": "2025-12-23T16:57:12.748678+00:00", "meta": {"OBJECT_NAME": "COSMOS 2251 DEB", "OBJECT_ID": "1993-036LU", "EPOCH": "2025-12-23T04:56:50.077824", "MEAN_MOTION": 14.64893926, "ECCENTRICITY": 0.00214165, "INCLINATION": 74.0037, "RA_OF_ASC_NODE": 48.4009, "ARG_OF_PERICENTER": 197.6835, "MEAN_ANOMALY": 218.9725, "EPHEMERIS_TYPE": 0, "CLASSIFICATION_TYPE": "U", "NORAD_CAT_ID": 34274, "ELEMENT_SET_NO": 999, "REV_AT_EPOCH": 88829, "BSTAR": 0.0010451232, "MEAN_MOTION_DOT": 5.579e-05, "MEAN_MOTION_DDOT": 0}, "tle": {"line1": "1 34274U 93036LU  25357.20613516  .00005579  00000+0  10451-2 0  9995", "line2": "2 34274  74.0037  48.4009 0021416 197.6835 218.9725 14.64893926888292"}}, "geometry": {"type": "Point", "coordinates": [-134.28225308705288, 5.971808003293928]}}, {"type": "Feature", "properties": {"norad_id": 34276, "name": "COSMOS 2251 DEB", "group": "cosmos-2251-debris", "lat": 7.4417412188176355, "lon": -117.67397410995432, "alt_km": 691.1347021550646, "timestamp": "2025-12-23T16:57:12.748688+00:00", "meta": {"OBJECT_NAME": "COSMOS 2251 DEB", "OBJECT_ID": "1993-036LW", "EPOCH": "2025-12-23T04:46:29.650656", "MEAN_MOTION": 14.57292007, "ECCENTRICITY": 0.00221967, "INCLINATION": 74.0236, "RA_OF_ASC_NODE": 65.435, "ARG_OF_PERICENTER": 211.2136, "MEAN_ANOMALY": 179.9991, "EPHEMERIS_TYPE": 0, "CLASSIFICATION_TYPE": "U", "NORAD_CAT_ID": 34276, "ELEMENT_SET_NO": 999, "REV_AT_EPOCH": 88745, "BSTAR": 0.00067870159, "MEAN_MOTION_DOT": 3.053e-05, "MEAN_MOTION_DDOT": 0}, "tle": {"line1": "1 34276U 93036LW  25357.19895429  .00003053  00000+0  67870-3 0  9993", "line2": "2 34276  74.0236  65.4350 0022196 211.2136 179.9991 14.57292007887459"}}, "geometry": {"type": "Point", "coordinates": [-117.67397410995432, 7.4417412188176355]}}, {"type": "Feature", "properties": {"norad_id": 34297, "name": "COSMOS 2251 DEB", "group": "cosmos-2251-debris", "lat": 74.01378340910624, "lon": -2.606799754784308, "alt_km": 768.542506735962, "timestamp": "2025-12-23T16:57:12.748698+00:00", "meta": {"OBJECT_NAME": "COSMOS 2251 DEB", "OBJECT_ID": "1993-036MT", "EPOCH": "2025-12-23T05:35:32.433792", "MEAN_MOTION": 14.36637883, "ECCENTRICITY": 0.00176869, "INCLINATION": 74.0487, "RA_OF_ASC_NODE": 264.9644, "ARG_OF_PERICENTER": 331.7244, "MEAN_ANOMALY": 191.7029, "EPHEMERIS_TYPE": 0, "CLASSIFICATION_TYPE": "U", "NORAD_CAT_ID": 34297, "ELEMENT_SET_NO": 999, "REV_AT_EPOCH": 88215, "BSTAR": 0.00013024205, "MEAN_MOTION_DOT": 3.58e-06, "MEAN_MOTION_DDOT": 0}, "tle": {"line1": "1 34297U 93036MT  25357.23301428  .00000358  00000+0  13024-3 0  9999", "line2": "2 34297  74.0487 264.9644 0017686 331.7244 191.7029 14.36637883882156"}}, "geometry": {"type": "Point", "coordinates": [-2.606799754784308, 74.01378340910624]}}, {"type": "Feature", "properties": {"norad_id": 34299, "name": "COSMOS 2251 DEB", "group": "cosmos-2251-debris", "lat": -71.5815666793523, "lon": -110.86103692145576, "alt_km": 74.69208104412337, "timestamp": "2025-12-23T16:57:12.748708+00:00", "meta": {"OBJECT_NAME": "COSMOS 2251 DEB", "OBJECT_ID": "1993-036MV", "EPOCH": "2025-12-22T22:12:31.544640", "MEAN_MOTION": 16.15901291, "ECCENTRICITY": 0.000982, "INCLINATION": 73.9583, "RA_OF_ASC_NODE": 310.8431, "ARG_OF_PERICENTER": 131.3448, "MEAN_ANOMALY": 228.8646, "EPHEMERIS_TYPE": 0, "CLASSIFICATION_TYPE": "U", "NORAD_CAT_ID": 34299, "ELEMENT_SET_NO": 999, "REV_AT_EPOCH": 89172, "BSTAR": 0.0085546, "MEAN_MOTION_DOT": 0.05990517, "MEAN_MOTION_DDOT": 0.25518}, "tle": {"line1": "1 34299U 93036MV  25356.92536510  .05990517  25518+0  85546-2 0  9996", "line2": "2 34299  73.9583 310.8431 0009820 131.3448 228.8646 16.15901291891725"}}, "geometry": {"type": "Point", "coordinates": [-110.86103692145576, -71.5815666793523]}}, {"type": "Feature", "properties": {"norad_id": 34301, "name": "COSMOS 2251 DEB", "group": "cosmos-2251-debris", "lat": 41.092336677586765, "lon": -49.588636546599645, "alt_km": 607.4428946488788, "timestamp": "2025-12-23T16:57:12.748719+00:00", "meta": {"OBJECT_NAME": "COSMOS 2251 DEB", "OBJECT_ID": "1993-036MX", "EPOCH": "2025-12-22T19:53:22.425792", "MEAN_MOTION": 14.85014101, "ECCENTRICITY": 0.00102276, "INCLINATION": 74.0055, "RA_OF_ASC_NODE": 146.643, "ARG_OF_PERICENTER": 209.688, "MEAN_ANOMALY": 277.0489, "EPHEMERIS_TYPE": 0, "CLASSIFICATION_TYPE": "U", "NORAD_CAT_ID": 34301, "ELEMENT_SET_NO": 999, "REV_AT_EPOCH": 88550, "BSTAR": 0.0032611142, "MEAN_MOTION_DOT": 0.00027935, "MEAN_MOTION_DDOT": 0}, "tle": {"line1": "1 34301U 93036MX  25356.82873178  .00027935  00000+0  32611-2 0  9997", "line2": "2 34301  74.0055 146.6430 0010227 209.6880 277.0489 14.85014101885501"}}, "geometry": {"type": "Point", "coordinates": [-49.588636546599645, 41.092336677586765]}}, {"type": "Feature", "properties": {"norad_id": 34302, "name": "COSMOS 2251 DEB", "group": "cosmos-2251-debris", "lat": -48.97981182623671, "lon": -57.462669039252454, "alt_km": 760.8456372092851, "timestamp": "2025-12-23T16:57:12.748730+00:00", "meta": {"OBJECT_NAME": "COSMOS 2251 DEB", "OBJECT_ID": "1993-036MY", "EPOCH": "2025-12-23T02:49:12.158976", "MEAN_MOTION": 14.39368344, "ECCENTRICITY": 0.00793714, "INCLINATION": 74.1781, "RA_OF_ASC_NODE": 104.5899, "ARG_OF_PERICENTER": 316.9355, "MEAN_ANOMALY": 105.2859, "EPHEMERIS_TYPE": 0, "CLASSIFICATION_TYPE": "U", "NORAD_CAT_ID": 34302, "ELEMENT_SET_NO": 999, "REV_AT_EPOCH": 87870, "BSTAR": 0.00056774212, "MEAN_MOTION_DOT": 1.805e-05, "MEAN_MOTION_DDOT": 0}, "tle": {"line1": "1 34302U 93036MY  25357.11750184  .00001805  00000+0  56774-3 0  9997", "line2": "2 34302  74.1781 104.5899 0079371 316.9355 105.2859 14.39368344878702"}}, "geometry": {"type": "Point", "coordinates": [-57.462669039252454, -48.97981182623671]}}]}